start=new Date('2022-03-22T00:00:00.000Z').valueOf();
sats=[{"OBJECT_NAME":"STARLINK-2388","CLASSIFICATION_TYPE":"U","OBJECT_TYPE":"PAYLOAD","DECAY_DATE":null,"BSTAR":"0.00003088200000","ECCENTRICITY":"0.00015190","NORAD_CAT_ID":"47807","TIME_SYSTEM":"UTC","MEAN_MOTION_DOT":"0.00000178","TLE_LINE2":"2 47807  53.0564 246.2782 0001519  66.9373 293.1776 15.06398383 58613","FILE":"3368836","PERIOD":"95.592","GP_ID":"199347188","MEAN_MOTION_DDOT":"0.0000000000000","MEAN_ANOMALY":"293.1776","OBJECT_ID":"2021-018W","LAUNCH_DATE":"2021-03-11","SITE":"AFETR","EPHEMERIS_TYPE":"0","MEAN_ELEMENT_THEORY":"SGP4","REF_FRAME":"TEME","ELEMENT_SET_NO":"999","REV_AT_EPOCH":"5861","INCLINATION":"53.0564","EPOCH":"2022-03-21T17:22:30.912960","RCS_SIZE":"LARGE","COUNTRY_CODE":"US","SEMIMAJOR_AXIS":"6925.354","RA_OF_ASC_NODE":"246.2782","MEAN_MOTION":"15.06398383","TLE_LINE1":"1 47807U 21018W   22080.72396890  .00000178  00000-0  30882-4 0  9995","APOAPSIS":"548.270","PERIAPSIS":"546.167","CENTER_NAME":"EARTH","ARG_OF_PERICENTER":"66.9373"},{"ARG_OF_PERICENTER":"67.5631","CENTER_NAME":"EARTH","TLE_LINE1":"1 47808U 21018X   22080.81934872 -.00001083  00000-0 -53808-4 0  9995","PERIAPSIS":"546.175","APOAPSIS":"548.208","MEAN_MOTION":"15.06407149","RA_OF_ASC_NODE":"270.8641","EPOCH":"2022-03-21T19:39:51.729408","SEMIMAJOR_AXIS":"6925.327","COUNTRY_CODE":"US","RCS_SIZE":"LARGE","INCLINATION":"53.0531","MEAN_ELEMENT_THEORY":"SGP4","REF_FRAME":"TEME","ELEMENT_SET_NO":"999","REV_AT_EPOCH":"5834","LAUNCH_DATE":"2021-03-11","OBJECT_ID":"2021-018X","EPHEMERIS_TYPE":"0","SITE":"AFETR","GP_ID":"199347438","PERIOD":"95.592","MEAN_ANOMALY":"292.5514","MEAN_MOTION_DDOT":"0.0000000000000","FILE":"3368836","TLE_LINE2":"2 47808  53.0531 270.8641 0001468  67.5631 292.5514 15.06407149 58346","NORAD_CAT_ID":"47808","ECCENTRICITY":"0.00014680","MEAN_MOTION_DOT":"-0.00001083","TIME_SYSTEM":"UTC","CLASSIFICATION_TYPE":"U","BSTAR":"-0.00005380800000","DECAY_DATE":null,"OBJECT_TYPE":"PAYLOAD","OBJECT_NAME":"STARLINK-2389"},{"BSTAR":"0.00014235000000","DECAY_DATE":null,"OBJECT_TYPE":"PAYLOAD","CLASSIFICATION_TYPE":"U","OBJECT_NAME":"STARLINK-2390","TLE_LINE2":"2 47809  53.0544 275.8234 0001788  68.3068 291.8112 15.06420104 58276","MEAN_MOTION_DOT":"0.00001840","TIME_SYSTEM":"UTC","NORAD_CAT_ID":"47809","ECCENTRICITY":"0.00017880","FILE":"3368836","EPHEMERIS_TYPE":"0","SITE":"AFETR","LAUNCH_DATE":"2021-03-11","OBJECT_ID":"2021-018Y","MEAN_ANOMALY":"291.8112","MEAN_MOTION_DDOT":"0.0000000000000","GP_ID":"199348688","PERIOD":"95.591","INCLINATION":"53.0544","REV_AT_EPOCH":"5827","ELEMENT_SET_NO":"999","MEAN_ELEMENT_THEORY":"SGP4","REF_FRAME":"TEME","RA_OF_ASC_NODE":"275.8234","MEAN_MOTION":"15.06420104","SEMIMAJOR_AXIS":"6925.287","COUNTRY_CODE":"US","RCS_SIZE":"LARGE","EPOCH":"2022-03-21T19:47:09.089664","PERIAPSIS":"545.914","APOAPSIS":"548.390","TLE_LINE1":"1 47809U 21018Y   22080.82441076  .00001840  00000-0  14235-3 0  9995","ARG_OF_PERICENTER":"68.3068","CENTER_NAME":"EARTH"},{"ARG_OF_PERICENTER":"62.1539","CENTER_NAME":"EARTH","TLE_LINE1":"1 47810U 21018Z   22080.84928926  .00000229  00000-0  34265-4 0  9999","PERIAPSIS":"546.222","APOAPSIS":"548.198","MEAN_MOTION":"15.06401229","RA_OF_ASC_NODE":"285.7272","EPOCH":"2022-03-21T20:22:58.592064","SEMIMAJOR_AXIS":"6925.345","COUNTRY_CODE":"US","RCS_SIZE":"LARGE","INCLINATION":"53.0539","MEAN_ELEMENT_THEORY":"SGP4","REF_FRAME":"TEME","ELEMENT_SET_NO":"999","REV_AT_EPOCH":"5813","LAUNCH_DATE":"2021-03-11","OBJECT_ID":"2021-018Z","EPHEMERIS_TYPE":"0","SITE":"AFETR","GP_ID":"199348440","PERIOD":"95.592","MEAN_ANOMALY":"297.9595","MEAN_MOTION_DDOT":"0.0000000000000","FILE":"3368836","TLE_LINE2":"2 47810  53.0539 285.7272 0001427  62.1539 297.9595 15.06401229 58133","NORAD_CAT_ID":"47810","ECCENTRICITY":"0.00014270","MEAN_MOTION_DOT":"0.00000229","TIME_SYSTEM":"UTC","CLASSIFICATION_TYPE":"U","DECAY_DATE":null,"BSTAR":"0.00003426500000","OBJECT_TYPE":"PAYLOAD","OBJECT_NAME":"STARLINK-2391"},{"APOAPSIS":"548.238","PERIAPSIS":"546.149","TLE_LINE1":"1 47811U 21018AA  22080.88891532  .00002217  00000-0  16765-3 0  9999","ARG_OF_PERICENTER":"67.8043","CENTER_NAME":"EARTH","INCLINATION":"53.0541","REV_AT_EPOCH":"5856","ELEMENT_SET_NO":"999","REF_FRAME":"TEME","MEAN_ELEMENT_THEORY":"SGP4","MEAN_MOTION":"15.06406522","RA_OF_ASC_NODE":"255.5445","COUNTRY_CODE":"US","RCS_SIZE":"LARGE","SEMIMAJOR_AXIS":"6925.329","EPOCH":"2022-03-21T21:20:02.283648","FILE":"3368836","SITE":"AFETR","EPHEMERIS_TYPE":"0","LAUNCH_DATE":"2021-03-11","OBJECT_ID":"2021-018AA","MEAN_MOTION_DDOT":"0.0000000000000","MEAN_ANOMALY":"292.3106","PERIOD":"95.592","GP_ID":"199347687","OBJECT_TYPE":"PAYLOAD","BSTAR":"0.00016765000000","DECAY_DATE":null,"CLASSIFICATION_TYPE":"U","OBJECT_NAME":"STARLINK-2392","TLE_LINE2":"2 47811  53.0541 255.5445 0001508  67.8043 292.3106 15.06406522 58561","TIME_SYSTEM":"UTC","MEAN_MOTION_DOT":"0.00002217","ECCENTRICITY":"0.00015080","NORAD_CAT_ID":"47811"},{"FILE":"3368836","PERIOD":"95.591","GP_ID":"199347937","MEAN_MOTION_DDOT":"0.0000000000000","MEAN_ANOMALY":"288.8495","LAUNCH_DATE":"2021-03-11","OBJECT_ID":"2021-018AB","SITE":"AFETR","EPHEMERIS_TYPE":"0","OBJECT_NAME":"STARLINK-2393","CLASSIFICATION_TYPE":"U","OBJECT_TYPE":"PAYLOAD","DECAY_DATE":null,"BSTAR":"0.00012751000000","ECCENTRICITY":"0.00018230","NORAD_CAT_ID":"47812","TIME_SYSTEM":"UTC","MEAN_MOTION_DOT":"0.00001619","TLE_LINE2":"2 47812  53.0554 285.6713 0001823  71.2692 288.8495 15.06413780 58078","TLE_LINE1":"1 47812U 21018AB  22080.86034737  .00001619  00000-0  12751-3 0  9990","APOAPSIS":"548.434","PERIAPSIS":"545.909","CENTER_NAME":"EARTH","ARG_OF_PERICENTER":"71.2692","REF_FRAME":"TEME","MEAN_ELEMENT_THEORY":"SGP4","ELEMENT_SET_NO":"999","REV_AT_EPOCH":"5807","INCLINATION":"53.0554","EPOCH":"2022-03-21T20:38:54.012768","RCS_SIZE":"LARGE","COUNTRY_CODE":"US","SEMIMAJOR_AXIS":"6925.306","MEAN_MOTION":"15.06413780","RA_OF_ASC_NODE":"285.6713"},{"CENTER_NAME":"EARTH","ARG_OF_PERICENTER":"64.7676","TLE_LINE1":"1 47813U 21018AC  22080.77833709  .00000381  00000-0  44496-4 0  9994","APOAPSIS":"548.264","PERIAPSIS":"546.150","EPOCH":"2022-03-21T18:40:48.324576","RCS_SIZE":"LARGE","COUNTRY_CODE":"US","SEMIMAJOR_AXIS":"6925.342","MEAN_MOTION":"15.06402118","RA_OF_ASC_NODE":"256.0368","MEAN_ELEMENT_THEORY":"SGP4","REF_FRAME":"TEME","REV_AT_EPOCH":"5854","ELEMENT_SET_NO":"999","INCLINATION":"53.0544","PERIOD":"95.592","GP_ID":"199348190","MEAN_MOTION_DDOT":"0.0000000000000","MEAN_ANOMALY":"295.3471","OBJECT_ID":"2021-018AC","LAUNCH_DATE":"2021-03-11","SITE":"AFETR","EPHEMERIS_TYPE":"0","FILE":"3368836","ECCENTRICITY":"0.00015260","NORAD_CAT_ID":"47813","TIME_SYSTEM":"UTC","MEAN_MOTION_DOT":"0.00000381","TLE_LINE2":"2 47813  53.0544 256.0368 0001526  64.7676 295.3471 15.06402118 58547","OBJECT_NAME":"STARLINK-2394","CLASSIFICATION_TYPE":"U","OBJECT_TYPE":"PAYLOAD","BSTAR":"0.00004449600000","DECAY_DATE":null},{"OBJECT_NAME":"STARLINK-2395","OBJECT_TYPE":"PAYLOAD","DECAY_DATE":null,"BSTAR":"0.00010151000000","CLASSIFICATION_TYPE":"U","TIME_SYSTEM":"UTC","MEAN_MOTION_DOT":"0.00001231","ECCENTRICITY":"0.00017410","NORAD_CAT_ID":"47814","TLE_LINE2":"2 47814  53.0557 275.6376 0001741  58.4043 301.7116 15.06398616 58281","FILE":"3368836","MEAN_MOTION_DDOT":"0.0000000000000","MEAN_ANOMALY":"301.7116","PERIOD":"95.592","GP_ID":"199348939","SITE":"AFETR","EPHEMERIS_TYPE":"0","LAUNCH_DATE":"2021-03-11","OBJECT_ID":"2021-018AD","ELEMENT_SET_NO":"999","REV_AT_EPOCH":"5828","REF_FRAME":"TEME","MEAN_ELEMENT_THEORY":"SGP4","INCLINATION":"53.0557","COUNTRY_CODE":"US","RCS_SIZE":"MEDIUM","SEMIMAJOR_AXIS":"6925.353","EPOCH":"2022-03-21T20:50:50.814816","MEAN_MOTION":"15.06398616","RA_OF_ASC_NODE":"275.6376","APOAPSIS":"548.424","PERIAPSIS":"546.012","TLE_LINE1":"1 47814U 21018AD  22080.86864369  .00001231  00000-0  10151-3 0  9996","CENTER_NAME":"EARTH","ARG_OF_PERICENTER":"58.4043"},{"TLE_LINE2":"2 47815  53.0538 270.4877 0001815  59.6665 300.4504 15.06391971 58290","ECCENTRICITY":"0.00018150","NORAD_CAT_ID":"47815","TIME_SYSTEM":"UTC","MEAN_MOTION_DOT":"0.00000856","CLASSIFICATION_TYPE":"U","OBJECT_TYPE":"PAYLOAD","BSTAR":"0.00007638600000","DECAY_DATE":null,"OBJECT_NAME":"STARLINK-2396","LAUNCH_DATE":"2021-03-11","OBJECT_ID":"2021-018AE","SITE":"AFETR","EPHEMERIS_TYPE":"0","PERIOD":"95.593","GP_ID":"199347189","MEAN_MOTION_DDOT":"0.0000000000000","MEAN_ANOMALY":"300.4504","FILE":"3368836","RA_OF_ASC_NODE":"270.4877","MEAN_MOTION":"15.06391971","EPOCH":"2022-03-21T21:36:37.822464","RCS_SIZE":"LARGE","COUNTRY_CODE":"US","SEMIMAJOR_AXIS":"6925.373","INCLINATION":"53.0538","MEAN_ELEMENT_THEORY":"SGP4","REF_FRAME":"TEME","REV_AT_EPOCH":"5829","ELEMENT_SET_NO":"999","ARG_OF_PERICENTER":"59.6665","CENTER_NAME":"EARTH","TLE_LINE1":"1 47815U 21018AE  22080.90043776  .00000856  00000-0  76386-4 0  9998","APOAPSIS":"548.495","PERIAPSIS":"545.981"},{"ELEMENT_SET_NO":"999","REV_AT_EPOCH":"5821","MEAN_ELEMENT_THEORY":"SGP4","REF_FRAME":"TEME","INCLINATION":"53.0523","COUNTRY_CODE":"US","RCS_SIZE":"LARGE","SEMIMAJOR_AXIS":"6925.338","EPOCH":"2022-03-21T20:13:41.499552","MEAN_MOTION":"15.06403458","RA_OF_ASC_NODE":"275.7518","APOAPSIS":"548.226","PERIAPSIS":"546.180","TLE_LINE1":"1 47816U 21018AF  22080.84284143 -.00000886  00000-0 -40570-4 0  9998","CENTER_NAME":"EARTH","ARG_OF_PERICENTER":"64.5206","OBJECT_NAME":"STARLINK-2399","OBJECT_TYPE":"PAYLOAD","DECAY_DATE":null,"BSTAR":"-0.00004057000000","CLASSIFICATION_TYPE":"U","TIME_SYSTEM":"UTC","MEAN_MOTION_DOT":"-0.00000886","ECCENTRICITY":"0.00014770","NORAD_CAT_ID":"47816","TLE_LINE2":"2 47816  53.0523 275.7518 0001477  64.5206 295.5936 15.06403458 58214","FILE":"3368836","MEAN_MOTION_DDOT":"0.0000000000000","MEAN_ANOMALY":"295.5936","PERIOD":"95.592","GP_ID":"199347439","SITE":"AFETR","EPHEMERIS_TYPE":"0","LAUNCH_DATE":"2021-03-11","OBJECT_ID":"2021-018AF"}];
